# Made by eph2tle, compiled Nov  4 2024 12:27:56
# Run at Fri Nov 15 22:11:53 2024
#
# No updates   (returned to low visibility until May 2026)
#
#    The following TLEs (Two-Line Elements) were generated by fitting
# a numerically-integrated ephemeris,  based on the orbit given below,
# to the SDP4/SGP4 models.  Each TLE is good for the interval between
# its epoch and the epoch of the subsequent TLE (usually one day).
# The maximum deviation between the numerically integrated ephemerides
# and the TLE-based ephemeris, in kilometers,  is given for each TLE
# as the "worst residual".
#
#    This fitting is done using the 'eph2tle' code packaged with Find_Orb.
# The code has details on how the TLEs were computed :
#
#    https://github.com/Bill-Gray/find_orb/eph2tle.cpp
#
#    Be warned:  the error given is that between the numerically
# integrated ephems and the TLE model.  There will usually be at
# least some additional difference between the ephems and the actual
# motion of the satellite,  especially if the ephemerides are based
# on a short arc.  If the following orbital elements say something
# like "[based on] 10 observations 2015 Jan. 1-13",  and the TLEs
# are for 2015 May,  the extrapolation may be tenuous at best.  If
# your application requires a specific level of accuracy,  you may
# want to contact me;  I can give you some idea as to the fit of the
# underlying data (and possibly TLEs based on newer data).
#
#   You can usually find the underlying observational data,  and the
# fitted orbit,  residuals,  ephemerides,  and sometimes some comments
# about the object,  among the pages listed at
#
#    https://www.projectpluto.com/pluto/mpecs/pseudo.htm
#
#    WARNING:  for this object,  "normal" TLEs cannot be fitted.  (This
# usually means an object with an hyperbolic or nearly-parabolic orbit.)
# For this and similar cases,   an alternative model is used,  in which
# most of the traditional TLE data is replaced by six signed 8-digit hex
# numbers.  These six numbers are a state vector,  numerically integrated
# using a simplified force model.  This is necessary for objects at L2 or
# L1,  and sometimes for objects in high orbits where the SDP4/SGP4 model
# fails.  Some documentation is in 'get_el.cpp' in the source code at
# https://www.github.com/Bill-Gray/sat_code ; look for 'hex' in that file,
# with the actual integration done in 'sdp4.cpp'.  But be aware:  it's my
# own extension,  doesn't work with other code,  and is therefore used
# only when necessary.
#
#    Also,  if you use a TLE outside the "correct" time range (between
# its MJD and that of the next TLE),  all bets are off.  I've carefully
# computed and minimized the worst error over the "correct" time frame,
# but the ephemeris may (or may not) diverge wildly outside of it.
#
# Ephem range: 60735.000000 60919.000000 1.000000
# Created Fri Nov 15 22:11:50 2024
# Ephemeris start:  1 Mar 2025  0:00:00
# Ephemeris end:    1 Sep 2025  0:00:00
# Times are all TDT
# Positions/velocities are in equatorial J2000
# Orbital elements:  DART Booster = NORAD 49498 = 2021-110B
#    Perihelion 2022 Feb 5.012839 +/- 0.000307 TT =  0:18:29.3 (JD 2459615.512839)
# Epoch 2021 Dec  3.0 TT = JDT 2459551.5   Earth MOID: 0.0002      Find_Orb
# M 297.271136863 +/- 0.0009          (J2000 ecliptic)
# n   0.979941894 +/- 1.1e-5          Peri.   79.127453 +/- 0.0018
# a   1.003850791 +/- 7.54e-6         Node    61.412402 +/- 0.00056
# e   0.06623265 +/- 3.04e-5          Incl.    3.890444 +/- 0.0021
# P   1.006/367.362d         H 23.79  G  0.15   U  5.1
# q 0.937363092 +/- 2.35e-5    Q 1.070338491 +/- 3.86e-5
# From 15 observations 2021 Nov. 24-Dec. 3; mean residual 0".167
#
# 1 NoradU COSPAR   Epoch.epoch     dn/dt/2  d2n/dt2/6 BSTAR    T El# C
# 2 NoradU Inclina RAAscNode Eccent  ArgPeri MeanAno  MeanMotion Rev# C

# Worst residual: 5.71 km
# MJD 60735.000000 (2025 Mar  1  0:00)
DART Booster = NORAD 49498 = 2021-110B
1 49498U 21110B   25059.99919926 +040BKZAW -003XF7MF +04LGR5YBH 25129
2 49498                          -000DOKG5 -0002S20I -0002ZACD     00

# Worst residual: 5.41 km
# MJD 60736.000000 (2025 Mar  2  0:00)
DART Booster = NORAD 49498 = 2021-110B
1 49498U 21110B   25060.99919926 +03X27R01 -004LZGCN +04KPPTADH 25129
2 49498                          -000DHGGV -0002WMMV -0003A0SC     04

# Worst residual: 5.13 km
# MJD 60737.000000 (2025 Mar  3  0:00)
DART Booster = NORAD 49498 = 2021-110B
1 49498U 21110B   25061.99919926 +03TUKNDU -005BMHSL +04JW444OH 25123
2 49498                          -000DA6HN -0003119A -0003KNUF     02

# Worst residual: 4.94 km
# MJD 60738.000000 (2025 Mar  4  0:00)
DART Booster = NORAD 49498 = 2021-110B
1 49498U 21110B   25062.99919926 +03QOP9J6 -0062AU58 +04IZYXD7H 25120
2 49498                          -000D2PC9 -000359CD -0003V73F     00

# Worst residual: 4.83 km
# MJD 60739.000000 (2025 Mar  5  0:00)
DART Booster = NORAD 49498 = 2021-110B
1 49498U 21110B   25063.99919926 +03NKNF9P -006TYT2E +04I1B8KJH 25124
2 49498                          -000CV072 -000399Y1 -00045LW1     00

# Worst residual: 4.77 km
# MJD 60740.000000 (2025 Mar  6  0:00)
DART Booster = NORAD 49498 = 2021-110B
1 49498U 21110B   25064.99919926 +03KIH3KN -007MKGWZ +04H067I6H 25128
2 49498                          -000CN2P4 -0003D1VZ -0004FVGJ     03

# Worst residual: 4.71 km
# MJD 60741.000000 (2025 Mar  7  0:00)
DART Booster = NORAD 49498 = 2021-110B
1 49498U 21110B   25065.99919926 +03HI8AHF -008G1LJ4 +04FWL6S4H 25121
2 49498                          -000CEWY9 -0003GJXQ -0004PZ04     09

# Worst residual: 4.64 km
# MJD 60742.000000 (2025 Mar  8  0:00)
DART Booster = NORAD 49498 = 2021-110B
1 49498U 21110B   25066.99919926 +03EJYXB5 -009ABOC1 +04EQLPS9H 25125
2 49498                          -000C6JGW -0003JQXL -0004ZVRH     02

# Worst residual: 4.56 km
# MJD 60743.000000 (2025 Mar  9  0:00)
DART Booster = NORAD 49498 = 2021-110B
1 49498U 21110B   25067.99919926 +03BNQRJ0 -00A5BXBE +04DI9I4LH 25120
2 49498                          -000BXZ2P -0003MLUZ -00059L28     08

# Worst residual: 4.48 km
# MJD 60744.000000 (2025 Mar 10  0:00)
DART Booster = NORAD 49498 = 2021-110B
1 49498U 21110B   25068.99919926 +038TLCGJ -00B0ZCHH +04C7MEUDH 25128
2 49498                          -000BP8TH -0003P3W1 -0005J2BM     01

# Worst residual: 4.39 km
# MJD 60745.000000 (2025 Mar 11  0:00)
DART Booster = NORAD 49498 = 2021-110B
1 49498U 21110B   25069.99919926 +0361JXLQ -00BX6RIB +04AUQFHDH 25127
2 49498                          -000BGDWW -0003R8DV -0005SB2R     07

# Worst residual: 4.29 km
# MJD 60746.000000 (2025 Mar 12  0:00)
DART Booster = NORAD 49498 = 2021-110B
1 49498U 21110B   25070.99919926 +033BNHIA -00CTUVEU +049FNN66H 25120
2 49498                          -000B7FOA -0003SYWP -00061AYQ     06

# Worst residual: 4.17 km
# MJD 60747.000000 (2025 Mar 13  0:00)
DART Booster = NORAD 49498 = 2021-110B
1 49498U 21110B   25071.99919926 +030NWN2C -00DQWAA4 +047YG7OFH 25127
2 49498                          -000AYFH6 -0003UB7Q -0006A1QH     02

# Worst residual: 4.05 km
# MJD 60748.000000 (2025 Mar 14  0:00)
DART Booster = NORAD 49498 = 2021-110B
1 49498U 21110B   25072.99919926 +02Y2BP6G -00EO7KX4 +046F6CHVH 25128
2 49498                          -000APEPP -0003V992 -0006IJ8N     06

# Worst residual: 3.93 km
# MJD 60749.000000 (2025 Mar 15  0:00)
DART Booster = NORAD 49498 = 2021-110B
1 49498U 21110B   25073.99919926 +02VIWMRW -00FLPCGC +044TW9YJH 25121
2 49498                          -000AGERC -0003VT55 -0006QRFH     08

# Worst residual: 3.83 km
# MJD 60750.000000 (2025 Mar 16  0:00)
DART Booster = NORAD 49498 = 2021-110B
1 49498U 21110B   25074.99919926 +02T1N342 -00GJA7SH +0436O8FTH 25123
2 49498                          -000A7GXM -0003VZ6B -0006YQCE     01

# Worst residual: 3.74 km
# MJD 60751.000000 (2025 Mar 17  0:00)
DART Booster = NORAD 49498 = 2021-110B
1 49498U 21110B   25075.99919926 +02QMIECT -00HGUWXA +041HKFMIH 25121
2 49498                          -0009YMHE -0003VRRS -00076G3K     07

# Worst residual: 3.64 km
# MJD 60752.000000 (2025 Mar 18  0:00)
DART Booster = NORAD 49498 = 2021-110B
1 49498U 21110B   25076.99919926 +02O9HMAF -00IECA0F +03ZQN1XEH 25120
2 49498                          -0009PWKA -0003V7GV -0007DWVE     05

# Worst residual: 3.48 km
# MJD 60753.000000 (2025 Mar 19  0:00)
DART Booster = NORAD 49498 = 2021-110B
1 49498U 21110B   25077.99919926 +02LYJJ3K -00JBNA98 +03XXY7ZLH 25128
2 49498                          -0009HC8N -0003UAW7 -0007L4W6     03

# Worst residual: 3.24 km
# MJD 60754.000000 (2025 Mar 20  0:00)
DART Booster = NORAD 49498 = 2021-110B
1 49498U 21110B   25078.99919926 +02JPMO4F -00K8P2MV +03W3K0A1H 25120
2 49498                          -00098YHW -0003T2R8 -0007S4FO     00

# Worst residual: 2.91 km
# MJD 60755.000000 (2025 Mar 21  0:00)
DART Booster = NORAD 49498 = 2021-110B
1 49498U 21110B   25079.99919926 +02HIPCIF -00L5EYJN +03U7IEQDH 25125
2 49498                          -00090S8Y -0003RJU1 -0007YVT9     06

# Worst residual: 2.53 km
# MJD 60756.000000 (2025 Mar 22  0:00)
DART Booster = NORAD 49498 = 2021-110B
1 49498U 21110B   25080.99919926 +02FDPNTF -00M1QGHN +03S9VCD3H 25128
2 49498                          -0008SUC9 -0003PQZU -00085FDZ     02

# Worst residual: 2.22 km
# MJD 60757.000000 (2025 Mar 23  0:00)
DART Booster = NORAD 49498 = 2021-110B
1 49498U 21110B   25081.99919926 +02DALIK9 -00MXLAWJ +03QAOMSYH 25125
2 49498                          -0008L5JR -0003NP7N -0008BRL2     02

# Worst residual: 1.94 km
# MJD 60758.000000 (2025 Mar 24  0:00)
DART Booster = NORAD 49498 = 2021-110B
1 49498U 21110B   25082.99919926 +02B9AMZ7 -00NSXH76 +03O9ZZPVH 25125
2 49498                          -0008DQJQ -0003LFLH -0008HWWE     08

# Worst residual: 1.89 km
# MJD 60759.000000 (2025 Mar 25  0:00)
DART Booster = NORAD 49498 = 2021-110B
1 49498U 21110B   25083.99919926 +0299QM4L -00ONP91R +03M7V03FH 25120
2 49498                          -00086LUF -0003IZEW -0008NVX4     08

